#cP2013  5 30  0  0  0.00000000      96 ORBIT IGb08 HLM  IGS
## 1742 345600.00000000   900.00000000 56442 0.0000000000000
+   24   R01R02R03R04R05R06R07R08R09R10R11R12R13R14R15R16R17
+        R18R19R20R21R22R23R24  0  0  0  0  0  0  0  0  0  0
+          0  0  0  0  0  0  0  0  0  0  0  0  0  0  0  0  0
+          0  0  0  0  0  0  0  0  0  0  0  0  0  0  0  0  0
+          0  0  0  0  0  0  0  0  0  0  0  0  0  0  0  0  0
++         3  3  3  3  3  3  3  3  4  3  4  3  3  4  3  4  3
++         3  3  4  4  3  3  3  0  0  0  0  0  0  0  0  0  0
++         0  0  0  0  0  0  0  0  0  0  0  0  0  0  0  0  0
++         0  0  0  0  0  0  0  0  0  0  0  0  0  0  0  0  0
++         0  0  0  0  0  0  0  0  0  0  0  0  0  0  0  0  0
%c R  cc GPS ccc cccc cccc cccc cccc ccccc ccccc ccccc ccccc
%c cc cc ccc ccc cccc cccc cccc cccc ccccc ccccc ccccc ccccc
%f  1.2500000  1.025000000  0.00000000000  0.000000000000000
%f  0.0000000  0.000000000  0.00000000000  0.000000000000000
%i    0    0    0    0      0      0      0      0         0
%i    0    0    0    0      0      0      0      0         0
/* FINAL ORBIT COMBINATION FROM WEIGHTED AVERAGE OF:        
/* brx cod cof emx esx gfz grg iac mcc                      
/*                                                          
/* PCV:IGS08_1740 OL/AL:FES2004  NONE     Y  ORB:CMB CLK:CMB
*  2013  5 30 22  0  0.00000000
PR01  15477.393558  -5381.294930 -19538.996641   -172.121927 11  9 12           
PR02  -3517.258100 -12154.708362 -22144.247466   -384.837611 11 11 11           
PR03 -19117.219758 -11510.387298 -12300.569702     -6.990052 13  8 10           
PR04 -24589.402952  -4405.496572   5160.583222     37.765585  9  7  9           
PR05 -15640.611383   5301.137408  19435.369599   -170.109339  8  5  9           
PR06   2879.068544  11982.130959  22326.970637     29.818610 11  9  9           
PR07  19114.215655  11553.315536  12371.345965    -62.869407  7 11  7           
PR08  24589.580785   4609.345821  -4853.134657    -17.858587  4 10 11           
PR09  -8539.000325  18151.739812 -15722.570168    -10.021507 12  8 12           
PR10   5635.085833   8999.662945 -23222.695639    -41.638173 10  9  8           
PR11  17546.351672  -5867.904940 -17611.683741    -41.939922 11 14 12           
PR12  18809.543026 -17063.658469  -1197.318513    -78.388035  8 10 13           
PR13   8539.586449 -18236.387639  15628.987182   -393.096707 10  8 11           
PR14  -5903.575418  -8736.481620  23196.727844     -3.674289 12 10  8           
PR15 -17925.192997   6929.547027  16713.327068      6.393985 11 10  9           
PR16 -18712.567571  17393.045965    587.261514     -2.624139  7 10 14           
PR17 -10087.403315 -21026.815027 -10335.714590     72.179690 12  9  8           
PR18 -11880.026406  -5659.140171 -21800.814962    -68.287587 11  8  9           
PR19  -5624.654692  15684.169471 -19310.934133    -59.135607 13  9 10           
PR20   3469.629039  24855.707928  -4732.142767    -47.407462 11  5 12           
PR21  10092.304860  20879.078586  10525.674849     -0.794767 13  9 12           
PR22  11968.157733   5952.375632  21764.746779     85.964195 11  6 10           
PR23   6681.622163 -13431.497240  20628.625418   -515.924861 12  5  9           
PR24  -2159.104746 -24186.606543   7785.516684    -94.193510 10  7  4           
*  2013  5 30 22 15  0.00000000
PR01  17724.299438  -4900.737287 -17665.941913   -172.121927 11  9 12           
PR02   -830.743656 -11476.608338 -22760.117737   -384.840630 11 11 11           
PR03 -17510.058799 -10989.762487 -14889.973646     -6.989121 13  8 10           
PR04 -25050.486216  -4369.519947   1986.946327     37.766517 10  8  9           
PR05 -17874.314944   4827.168257  17541.579802   -170.109339  8  5  9           
PR06    176.205657  11290.030325  22863.054191     29.819541 11  8  9           
PR07  17513.838343  11029.251541  14954.896548    -62.871269  7 11  7           
PR08  25022.308616   4569.074353  -1671.817812    -17.859518  6 11 11           
PR09  -9699.386829  19513.719629 -13204.474780    -10.020576 12  7 13           
PR10   3689.455657  11058.013347 -22724.742675    -41.637129 11  9  9           
PR11  15869.214337  -4303.829998 -19542.403475    -41.938878 11 14 11           
PR12  18452.945464 -16933.940181  -4408.767747    -78.388035  8 11 13           
PR13   9662.984376 -19624.062189  13091.909072   -393.093094 11  8 11           
PR14  -3944.191333 -10800.708750  22733.285381     -3.676377 12 10  8           
PR15 -16298.135405   5443.759523  18806.815413      6.393985 11 10  9           
PR16 -18392.690096  17322.235971   3791.073776     -2.623095  6 11 14           
PR17 -10525.260471 -22042.888725  -7365.741233     72.181665 12  9  8           
PR18 -12635.134117  -8171.540092 -20535.963020    -68.289675 11  8  8           
PR19  -6185.180818  13264.652770 -20887.978448    -59.137583 13 10 10           
PR20   3429.500303  24063.809660  -7827.767707    -47.409437 11  4 12           
PR21  10527.717829  21919.152111   7559.915558     -0.795811 12  9 12           
PR22  12736.786061   8438.650189  20480.169773     85.958706 11  6 10           
PR23   7329.709139 -10888.746453  21870.011833   -515.928925 13  5  9           
PR24  -1991.078267 -23044.019670  10732.462494    -94.195373 10  6  4           
*  2013  5 30 22 30  0.00000000
PR01  19752.019108  -4626.808165 -15449.442520   -172.121927 10  9 12           
PR02   1945.327166 -10983.620267 -22933.751500   -384.842267 11 11 11           
PR03 -15572.321886 -10534.880310 -17189.099256     -6.989121 13  8 10           
PR04 -25120.560335  -4232.413413  -1225.296987     37.766517 10  8  9           
PR05 -19885.937745   4559.069744  15306.953679   -170.109339  9  6  9           
PR06  -2607.850532  10787.362682  22954.687323     29.819541 11  8 10           
PR07  15584.663259  10570.772168  17248.871679    -62.871269  8 11  7           
PR08  25063.054892   4428.285280   1542.051311    -17.859518  7 11 11           
PR09 -10544.035353  20710.625707 -10429.039305    -10.020576 12  5 13           
PR10   1963.693753  13191.026901 -21787.138965    -41.636311 11  9  9           
PR11  14177.282533  -2453.459008 -21094.960187    -41.938059 12 14 11           
PR12  17851.741005 -16481.697338  -7533.790432    -78.388035  8 11 13           
PR13  10468.513540 -20840.559353  10300.058238   -393.093913 11  7 12           
PR14  -2201.321262 -12943.907550  21826.691974     -3.678014 12 10  9           
PR15 -14637.939039   3659.053655  20533.603981      6.393985 10 10  9           
PR16 -17826.123792  16932.324527   6921.575050     -2.622277  6 12 14           
PR17 -10911.850604 -22671.095328  -4252.756154     72.182484 12  8  8           
PR18 -13512.464363 -10451.968793 -18869.963365    -68.291312 11  8  8           
PR19  -6977.400804  10733.078964 -22059.219631    -59.138401 13 11 10           
PR20   3210.803709  22925.914495 -10771.825224    -47.410256 11  5 12           
PR21  10913.782303  22570.974064   4446.538953     -0.796630 12  8 13           
PR22  13625.090930  10689.069640  18799.848061     85.960343 10  7 10           
PR23   8205.270179  -8281.207835  22686.600565   -515.931380 12  6  9           
PR24  -1622.000295 -21587.146441  13470.687839    -94.195373 10  7  4           
*  2013  5 30 22 45  0.00000000
PR01  21504.468420  -4531.154952 -12932.559773   -172.121927 10  9 12           
PR02   4743.579399 -10690.537832 -22661.732387   -384.845287 11 10 11           
PR03 -13345.185424 -10193.354694 -19153.036139     -6.989121 13  8  9           
PR04 -24788.705750  -4048.348612  -4413.721280     37.768379 10  9  9           
PR05 -21619.840306   4468.058557  12774.919984   -170.109339  9  6  9           
PR06  -5405.066689  10487.889276  22599.957954     29.819541 11  8 11           
PR07  13367.637644  10225.389814  19208.961314    -62.873132  8 11  8           
PR08  24701.962076   4241.360750   4725.934496    -17.860449  8 11 10           
PR09 -11085.512345  21683.227300  -7450.181127    -10.019645 12  4 13           
PR10    489.500389  15335.703481 -20428.235205    -41.634335 11  9 10           
PR11  12531.582634   -346.725691 -22239.098559    -41.936084 12 15 10           
PR12  17059.267369 -15685.508184 -10511.256009    -78.387103  8 12 13           
PR13  10970.388683 -21826.665408   7307.815993   -393.095888 11  7 12           
PR14   -707.678790 -15102.720916  20494.392802     -3.681034 13 10  9           
PR15 -13007.621286   1602.437259  21860.344897      6.393985 10 11  8           
PR16 -17064.622804  16199.911238   9918.133261     -2.621233  7 13 14           
PR17 -11190.509196 -22912.586946  -1057.235340     72.184459 12  8  8           
PR18 -14464.832597 -12452.546650 -16835.136227    -68.293400 11  8  9           
PR19  -7999.524831   8158.137452 -22801.897311    -59.139445 13 11 10           
PR20   2774.169548  21485.100381 -13507.241122    -47.413163 12  7 12           
PR21  11193.530719  22834.718462   1246.314388     -0.798605 11  8 13           
PR22  14585.926229  12657.347879  16756.613510     85.961500 10  7  9           
PR23   9299.042340  -5677.673314  23062.542294   -515.935444 12  7  9           
PR24  -1019.479508 -19866.587326  15946.905503    -94.196304 10  7  5           
EOF
